#cP2022  3 19  6  0  0.00000000     576 d+D   IGb14 EXT AIUB
## 2201 540000.00000000   300.00000000 59657 0.2500000000000
+   76   G01G02G03G04G05G06G07G08G09G10G11G12G13G14G15G16G17
+        G18G19G20G21G22G23G24G25G26G27G28G29G30G31G32R01R02
+        R03R04R05R07R08R09R12R13R14R15R17R18R19R20R21R22R24
+        E01E02E03E04E05E07E08E10E11E12E13E14E15E18E19E21E24
+        E25E26E27E30E31E33E34E36  0  0  0  0  0  0  0  0  0
++         6  7  8  8  7  7  6  7  5  6  8  7  7  7  7  7  7
++         8  7  7  7  7  7  6  6  7  7  7  7  6  7  7  8  6
++         7  8  7  7  7  6  7  8  7  6  8  8  9  9  8  7  8
++         6  5  6  7  7  5  6  7  6  7  6  8  6  6  8  7  6
++         6  7  6  6  8  6  7  7  0  0  0  0  0  0  0  0  0
%c M  cc GPS ccc cccc cccc cccc cccc ccccc ccccc ccccc ccccc
%c cc cc ccc ccc cccc cccc cccc cccc ccccc ccccc ccccc ccccc
%f  1.2500000  1.025000000  0.00000000000  0.000000000000000
%f  0.0000000  0.000000000  0.00000000000  0.000000000000000
%i    0    0    0    0      0      0      0      0         0
%i    0    0    0    0      0      0      0      0         0
/* Center for Orbit Determination in Europe (CODE)          
/* Ultra-rapid GRE orbits starting year-day 22078 06 hour   
/* Observed/predicted: 25/23 hours (data used up to 079G)   
/* PCV:IGS14      OL/AL:FES2014b NONE     YN ORB:CoN CLK:BRD
*  2022  3 19 19  5  0.00000000
PG01  13629.706363 -20257.063078   9722.420757    405.034843
PG02 -15158.805373    419.441739 -21162.980721   -652.430912
PG03  19415.236176 -12958.852153 -12668.396750   -170.726371
PG04   9646.862578 -11987.682581 -21634.794231   -182.471569
PG05 -26093.214176   4817.638848  -2569.757847    -75.253725
PG06  -7861.519742 -16554.459641 -19126.982744    236.892467
PG07   4236.588174 -25430.977739   5554.994623    316.813057
PG08  17093.053535  -2315.797000  20260.275210    -60.493510
PG09  -1168.374670 -19716.299761 -17809.173833   -348.866965
PG10   9721.873912  12792.085942  21345.219778   -351.914777
PG11 -15506.391449  -1456.536410 -21517.930121    -59.724382
PG12 -22343.187556  10186.414849 -10220.203797   -187.356311
PG13 -19039.332599  -7188.529842  17003.253311    279.604926
PG14  -8197.734559 -13836.300189  21142.484950    -95.387939
PG15 -16711.486465   4981.571177  19707.568677    -75.538341
PG16  26098.058225   1197.670875  -6273.238489   -482.503225
PG17 -12949.611277 -22534.143568   5772.867953    589.331698
PG18  -5157.152084  25495.460685   5083.833933    216.065003
PG19 -17014.082976 -20381.805739  -2728.256694    133.160437
PG20 -23694.823185    -93.733639 -11750.349840    516.229142
PG21  15982.875747 -10832.933175  18604.766936    159.575005
PG22  18248.401951  18805.343360  -4492.740037    230.029362
PG23  -3072.772139  15737.399875  21147.665005     -8.170027
PG24 -14342.568073  17434.695539  13362.839061    266.475883
PG25 -10540.519399  15812.671371 -18727.403312    300.532926
PG26  19990.819446   6997.525807 -16296.671244    192.082322
PG27  20884.334297   9256.667570  13676.701938    159.222607
PG28 -16256.727552 -10837.301581  18403.613136    376.890458
PG29  -1714.860772  18522.827711 -18985.185196   -493.262648
PG30  -1848.886199 -23196.487746  12649.301367   -519.561367
PG31  10084.412564  14144.164294 -20087.095677   -169.657255
PG32  16555.433452  20760.976512   2548.786635    -87.994987
PR01  13158.588853  -5852.953968 -21044.199071      7.291898
PR02  -7041.730969 -13344.262167 -20501.507439    512.981755
PR03 -21136.886949 -12228.766143  -7228.596674     53.374706
PR04 -23106.284157  -4451.944029   9867.217283    132.685218
PR05 -12382.834319   5797.363652  21543.955265     89.653201
PR07  21487.635743  12103.333441   6651.967906     32.855552
PR08  23128.584225   4346.501086  -9811.729511    -64.099562
PR09  -5199.691595  16307.494450 -18928.724417     45.229147
PR12  18406.602181 -17166.528201   4235.628387     17.506528
PR13   6412.105228 -16505.878265  18341.116318    -19.676523
PR14 -10514.319627  -5596.245274  22563.077666     75.558092
PR15 -20341.662535   8003.384615  13158.295641     97.438698
PR17  -9338.400183 -18493.888635 -14894.170433    510.866126
PR18 -10670.236481  -1918.865086 -23070.235244    110.792723
PR19  -7305.554906  14439.393963 -19719.157157   -182.180107
PR20   1421.455282  25367.673064  -2538.061227    -67.006785
PR21   9552.882573  17361.499516  16051.377051   -286.596091
PR22  10549.369383   1168.848270  23187.576496   -171.596696
PR24  -2274.817803 -25343.593919   1853.460590     85.142027
PE01 -26880.681162    422.590118  12369.067737   -599.923785
PE02  26959.818730   -542.469999 -12241.683140    287.306317
PE03  24955.978178   9616.255802 -12672.099564   -539.067938
PE04 -16241.650639   7880.134853  23467.048322   -988.052554
PE05  19164.010921  21804.965081   5789.780794   -198.851948
PE07  -2321.465342 -21126.312054 -20597.202891   -649.960682
PE08  15828.717269  -8153.289125 -23640.464615   -497.879862
PE10 -10864.434605  25802.079372  -9622.846373   -501.475618
PE11  -4937.956992  29193.019672    535.359211   4188.212806
PE12 -14994.528321  18465.186708 -17632.625513   4705.458418
PE13   5289.546265 -29115.995308    145.436750    427.405066
PE14 -10453.919049  17503.019277 -23042.906913  -1783.930416
PE15  14940.562996 -18337.668813  17795.868593    756.819616
PE18  -4259.292436 -22955.502036  12828.549190  -1665.045886
PE19 -25010.145261 -11702.156266  10668.612884  -1587.215723
PE21 -13536.853186 -12103.181768  23367.695645   -723.477952
PE24  -9718.952593  18507.717333 -20962.757962   -514.277032
PE25  13294.989267  12242.668059 -23444.114292   -567.369305
PE26  -8029.817835 -22011.881612 -18078.175277   -931.219530
PE27   8363.491517 -18471.555540  21567.104771   -256.837632
PE30  25747.846152 -13290.765777   6088.590454   -361.702437
PE31 -25138.671078  13913.274372  -7094.558762   -493.775139
PE33 -15736.424600  -3174.946853 -24862.326703   -458.418706
PE34  15786.770986   2926.077360  24864.460378   -507.609780
PE36   7403.048926  22728.365530  17473.472561   -347.588126
EOF
